HST                     
1 20580U 90037B   26282.58334327  .00006019  00000+0  18255-3 0  9998
2 20580  28.4735  18.0284 0001634 359.2551   0.8043 15.31874817806120
TOPEX/POSEIDON          
1 22076U 92052A   26283.15752830 -.00000069  00000+0 -36129-4 0  9998
2 22076  66.0393 253.2932 0008099 267.1025 171.9012 12.81096726598219
RADARSAT-1              
1 23710U 95059A   26283.28011156  .00000144  00000+0  69256-4 0  9996
2 23710  98.5492 290.6520 0001460  83.6968 276.4382 14.32449912614829
ISS (ZARYA)             
1 25544U 98067A   26282.95044904  .00006711  00000+0  13074-3 0  9997
2 25544  51.6315  92.1575 0006672 244.0714 115.9587 15.48795780589546
LANDSAT 7               
1 25682U 99020A   26283.27413375  .00000314  00000+0  68462-4 0  9993
2 25682  97.8649 281.6792 0001761  88.7029 328.0441 14.63995696462688
QUIKSCAT                
1 25789U 99034A   26283.18906200  .00000269  00000+0  74885-4 0  9995
2 25789  98.2488 161.8530 0093913 289.2963  69.8094 14.51787702429205
TERRA                   
1 25994U 99068A   26283.27266416  .00000280  00000+0  65881-4 0  9997
2 25994  97.9326 328.1828 0001641 189.7531 243.2110 14.61172895426419
EO-1                    
1 26619U 00075A   26282.61070692  .00000486  00000+0  90694-4 0  9996
2 26619  98.1321 238.8321 0010077 120.3229 239.8974 14.69318686663392
SAC-C                   
1 26620U 00075B   26283.31990693  .00000375  00000+0  82920-4 0  9998
2 26620  98.4965 298.5926 0001377  78.1644 281.9712 14.63019703377650
JASON-1                 
1 26997U 01055A   26283.15806887 -.00000070  00000+0 -36860-4 0  9993
2 26997  66.0386 193.5041 0009166 270.2245 195.0660 12.84089124163399
AQUA                    
1 27424U 02022A   26283.30158566  .00000602  00000+0  12926-3 0  9990
2 27424  98.4437 254.9746 0000955  65.5181  41.9868 14.62229038300093
SORCE                   
1 27651U 03004A   26283.28124835  .00002341  00000+0  17590-3 0  9996
2 27651  39.9915 324.7521 0016826 162.2870 197.8514 15.04213204289233
AURA                    
1 28376U 04026A   26283.21765443  .00000614  00000+0  13375-3 0  9993
2 28376  98.3566 240.7104 0001058  70.8768 289.2547 14.61467990183010
SWIFT                   
1 28485U 04047A   26282.50602505  .00310947  00000+0  93745-3 0  9999
2 28485  20.5515  13.0906 0004140 119.2027 240.8838 15.90126223204928
CLOUDSAT                
1 29107U 06016A   26283.25518581  .00000735  00000+0  89831-4 0  9995
2 29107  98.3812 326.8692 0004432 332.7711  27.3270 14.86569000 91601
CALIPSO                 
1 29108U 06016B   26283.30707898  .00000685  00000+0  12440-3 0  9998
2 29108  98.4444 302.8993 0000809  87.7530 272.3767 14.69518753 89961
HINODE (SOLAR-B)        
1 29479U 06041A   26283.32320400  .00000403  00000+0  77542-4 0  9992
2 29479  98.0536 297.7822 0016087 283.8012  76.1403 14.68741062 71779
FGRST (GLAST)           
1 33053U 08029A   26283.25428317  .00002948  00000+0  10323-3 0  9990
2 33053  25.5812 125.1924 0007515 244.6286 115.3475 15.24459679 13263
JASON-2 (OSTM)          
1 33105U 08032A   26283.29420689 -.00000031  00000+0  12431-3 0  9994
2 33105  66.0391 168.7944 0007831 269.6482 227.4735 12.87697722858523
NOAA 19                 
1 33591U 09005A   26283.29081468  .00000021  00000+0  35045-4 0  9997
2 33591  98.9414 354.1841 0014666  66.9123 293.3594 14.13488617910743
SUOMI NPP               
1 37849U 11061A   26283.23201306  .00000054  00000+0  46640-4 0  9990
2 37849  98.8049 223.3601 0002087  27.4588 332.6698 14.19537659774767
LANDSAT 8               
1 39084U 13008A   26283.32145971  .00000238  00000+0  62973-4 0  9992
2 39084  98.2190 352.0179 0001301  94.7873 265.3474 14.57110971714666
GPM-CORE                
1 39574U 14009C   26283.23758402  .00005849  00000+0  12732-3 0  9997
2 39574  64.9691 282.5767 0010744 270.6959  89.2950 15.45280766715589
OCO 2                   
1 40059U 14035A   26283.24532751  .00000311  00000+0  79114-4 0  9991
2 40059  98.2110 222.8244 0001295  68.8500 291.2837 14.57104654652809
CYGFM05                 
1 41884U 16078A   26283.23805635  .00029103  00000+0  32441-3 0  9991
2 41884  34.9555 215.8717 0005704 196.1547 163.8998 15.61762829546723
ICESAT-2                
1 43613U 18070A   26283.26711980  .00002243  00000+0  81347-4 0  9995
2 43613  91.9984 322.0384 0005116  62.4373 297.7395 15.28269896450039
SENTINEL-6A             
1 46984U 20086A   26283.16941562 -.00000063  00000+0 -98522-5 0  9993
2 46984  66.0396 256.2288 0007884 269.3844  90.6268 12.80930159275057
CSS (TIANHE)            
1 48274U 21035A   26283.18867924  .00021388  00000+0  25541-3 0  9993
2 48274  41.4702 343.5575 0000800   8.2160 351.8692 15.60516346311121
